[{"OBJECT_NAME":"RISING 2","OBJECT_ID":"2014-029D","EPOCH":"2026-03-09T22:49:58.395648","MEAN_MOTION":14.97431818,"ECCENTRICITY":0.00015683,"INCLINATION":97.6622,"RA_OF_ASC_NODE":139.362,"ARG_OF_PERICENTER":264.4485,"MEAN_ANOMALY":95.6558,"EPHEMERIS_TYPE":0,"CLASSIFICATION_TYPE":"U","NORAD_CAT_ID":39769,"ELEMENT_SET_NO":999,"REV_AT_EPOCH":63869,"BSTAR":0.00068568934,"MEAN_MOTION_DOT":7.926e-5,"MEAN_MOTION_DDOT":0},{"OBJECT_NAME":"STARLINK-5257","OBJECT_ID":"2023-010AZ","EPOCH":"2026-03-09T22:42:44.276256","MEAN_MOTION":14.98332369,"ECCENTRICITY":0.00026988,"INCLINATION":70.0014,"RA_OF_ASC_NODE":3.7087,"ARG_OF_PERICENTER":255.8534,"MEAN_ANOMALY":104.2325,"EPHEMERIS_TYPE":0,"CLASSIFICATION_TYPE":"U","NORAD_CAT_ID":55316,"ELEMENT_SET_NO":999,"REV_AT_EPOCH":17468,"BSTAR":0.00024880287,"MEAN_MOTION_DOT":2.877e-5,"MEAN_MOTION_DDOT":0}]
